ATLAS CENTAUR R/B       
1 06155U 72065B   26089.57107103  .00001746  00000+0  24032-3 0  9997
2 06155  35.0007 183.3738 0033535 187.0343 172.9890 14.77747792844357
SL-8 R/B                
1 08459U 75112B   26089.44033469  .00000257  00000+0  92990-4 0  9996
2 08459  74.0628 340.7436 0014581  65.4213 294.8459 14.38215531634852
SL-3 R/B                
1 10114U 77057B   26089.56333318  .00017990  00000+0  36886-3 0  9999
2 10114  97.5793 262.4160 0006867 198.6965 161.4033 15.46095529671559
SEASAT 1                
1 10967U 78064A   26089.45517646  .00000349  00000+0  13602-3 0  9991
2 10967 108.0073 169.0702 0002665 275.4621  84.6220 14.46177550509517
SL-14 R/B               
1 11267U 79011B   26089.43903401  .00000863  00000+0  82679-4 0  9996
2 11267  82.5212  76.8752 0015796 354.1972   5.9062 14.91935620531879
SL-8 R/B                
1 11574U 79089B   26089.34516794  .00000430  00000+0  13803-3 0  9999
2 11574  74.0690  52.8043 0016705 222.7959 137.1898 14.42364009439087
SL-14 R/B               
1 11672U 80005B   26089.53284244  .00000750  00000+0  73213-4 0  9998
2 11672  82.5111 287.4599 0017255  93.6656 266.6536 14.90954326479597
SL-8 R/B                
1 12139U 81003B   26089.52483404  .00028437  00000+0  71044-3 0  9995
2 12139  82.9324 270.7433 0260681 106.1917 256.8170 15.11908774317823
SL-3 R/B                
1 12465U 81046B   26089.54634832  .00015797  00000+0  36134-3 0  9995
2 12465  81.2280 264.6850 0018174 308.2312  51.7294 15.42509572441649
SL-3 R/B                
1 12904U 81103B   26089.55406090  .00008193  00000+0  36094-3 0  9998
2 12904  81.1612 188.9567 0012813 211.7966 148.2493 15.21624932976400
SL-3 R/B                
1 13068U 82013B   26089.55378644  .00005254  00000+0  22596-3 0  9991
2 13068  81.1732 136.3143 0023607 109.0182 251.3611 15.22201825407527
SL-3 R/B                
1 13154U 82039B   26089.52851169  .00003871  00000+0  23340-3 0  9991
2 13154  81.1569 191.9335 0028499 255.4090 104.3974 15.10199059384782
